NORAD_CAT_ID,OBJECT_NAME,OBJECT_TYPE,EPOCH,MEAN_MOTION,ECCENTRICITY,INCLINATION,RA_OF_ASC_NODE,ARG_OF_PERICENTER,MEAN_ANOMALY,BSTAR,MEAN_MOTION_DOT,MEAN_MOTION_DDOT,TLE_LINE0,TLE_LINE1,TLE_LINE2,SEMIMAJOR_AXIS,PERIOD,APOGEE,PERIGEE,DECAYED
49752.0,STARLINK-3209,PAYLOAD,2022-03-08 14:00:01,15.40478916,0.0004148,53.2175,226.6869,5.6019,344.7709,-7.712e-05,-3.578e-05,0.0,0 STARLINK-3209,1 49752U 21115AE  22067.58334491 -.00003578  00000-0 -77120-4 0  9997,2 49752  53.2175 226.6869 0004148   5.6019 344.7709 15.40478916 16005,6822.831999999999,93.477,447.527,441.867,0.0
49752.0,STARLINK-3209,PAYLOAD,2022-03-08 22:00:00,15.40469415,0.0004355,53.2173,225.1178,4.2316,35.7512,-1.4058e-05,-9.84e-06,0.0,0 STARLINK-3209,1 49752U 21115AE  22067.91667824 -.00000984  00000-0 -14058-4 0  9992,2 49752  53.2173 225.1178 0004355   4.2316  35.7512 15.40469415  3644,6822.86,93.478,447.696,441.754,0.0
49752.0,STARLINK-3209,PAYLOAD,2022-03-09 14:00:01,15.40443064,0.0004194,53.2179,221.9757,5.853,133.306,-6.360199999999999e-05,-3.019e-05,0.0,0 STARLINK-3209,1 49752U 21115AE  22068.58334491 -.00003019  00000-0 -63602-4 0  9998,2 49752  53.2179 221.9757 0004194   5.8530 133.3060 15.40443064  3660,6822.938,93.48,447.664,441.941,0.0
49752.0,STARLINK-3209,PAYLOAD,2022-03-09 16:00:00,15.40433156,0.0004295,53.2177,221.5837,6.3614,235.1926,0.00054254,0.00021955,0.0,0 STARLINK-3209,1 49752U 21115AE  22068.66667824  .00021955  00000-0  54254-3 0  9995,2 49752  53.2177 221.5837 0004295   6.3614 235.1926 15.40433156 16166,6822.967,93.48,447.762,441.902,0.0
49752.0,STARLINK-3209,PAYLOAD,2022-03-09 22:00:01,15.40448901,0.000441,53.2177,220.4064,5.5327,183.2564,0.00044802,0.0001806,0.0,0 STARLINK-3209,1 49752U 21115AE  22068.91668981  .00018060  00000-0  44802-3 0  9999,2 49752  53.2177 220.4064 0004410   5.5327 183.2564 15.40448901  3641,6822.92,93.479,447.794,441.777,0.0
49752.0,STARLINK-3209,PAYLOAD,2022-03-10 14:00:01,15.40484931,0.0004335,53.2178,217.2648,5.2917,282.6073,-0.0005744,-0.00023979,0.0,0 STARLINK-3209,1 49752U 21115AE  22069.58334491 -.00023979  00000-0 -57440-3 0  9998,2 49752  53.2178 217.2648 0004335   5.2917 282.6073 15.40484931  3611,6822.814,93.477,447.637,441.721,0.0
49752.0,STARLINK-3209,PAYLOAD,2022-03-10 20:00:01,15.40452566,0.0004544,53.2177,216.0879,4.261,230.8514,0.00092261,0.00037723,0.0,0 STARLINK-3209,1 49752U 21115AE  22069.83334491  .00037723  00000-0  92261-3 0  9996,2 49752  53.2177 216.0879 0004544   4.2610 230.8514 15.40452566 16342,6822.91,93.479,447.875,441.674,0.0
49752.0,STARLINK-3209,PAYLOAD,2022-03-10 22:00:01,15.40471654,0.0004545,53.2174,215.6949,3.2417,334.3283,6.8109e-05,2.398e-05,0.0,0 STARLINK-3209,1 49752U 21115AE  22069.91668981  .00002398  00000-0  68109-4 0  9994,2 49752  53.2174 215.6949 0004545   3.2417 334.3283 15.40471654  3648,6822.853,93.478,447.819,441.617,0.0
49752.0,STARLINK-3209,PAYLOAD,2022-03-11 14:00:01,15.40529683,0.0004351,53.2172,212.5535,2.4028,74.3464,-0.0011328,-0.00046826,0.0,0 STARLINK-3209,1 49752U 21115AE  22070.58334491 -.00046826  00000-0 -11328-2 0  9990,2 49752  53.2172 212.5535 0004351   2.4028  74.3464 15.40529683  3623,6822.682,93.474,447.516,441.578,0.0
49752.0,STARLINK-3209,PAYLOAD,2022-03-11 22:00:00,15.40515652,0.0004454,53.2166,210.9835,0.6424,125.7687,-0.00034392,-0.00014552,0.0,0 STARLINK-3209,1 49752U 21115AE  22070.91667824 -.00014552  00000-0 -34392-3 0  9994,2 49752  53.2166 210.9835 0004454   0.6424 125.7687 15.40515652 16516,6822.723000000001,93.475,447.627,441.55,0.0
49752.0,STARLINK-3209,PAYLOAD,2022-03-12 14:00:01,15.40197205,0.0004498,53.2175,207.8303,359.5969,226.1596,0.00133,0.00054215,0.0,0 STARLINK-3209,1 49752U 21115AE  22071.58334491  .00054215  00000-0  13300-2 0  9992,2 49752  53.2175 207.8303 0004498 359.5969 226.1596 15.40197205 16615,6823.6640000000025,93.495,448.598,442.46,0.0
49752.0,STARLINK-3209,PAYLOAD,2022-03-12 22:00:00,15.40440916,0.0004346,53.2162,206.272,357.7296,277.5351,-0.00052728,-0.00022019,0.0,0 STARLINK-3209,1 49752U 21115AE  22071.91667824 -.00022019  00000-0 -52728-3 0  9995,2 49752  53.2162 206.2720 0004346 357.7296 277.5351 15.40440916 16666,6822.944,93.48,447.774,441.844,0.0
49752.0,STARLINK-3209,PAYLOAD,2022-03-13 14:00:01,15.40427992,0.0004141999999999,53.217,203.1301,354.7418,19.5822,-0.0014865,-0.00061001,0.0,0 STARLINK-3209,1 49752U 21115AE  22072.58334491 -.00061001  00000-0 -14865-2 0  9993,2 49752  53.2170 203.1301 0004142 354.7418  19.5822 15.40427992  3665,6822.982,93.481,447.673,442.021,0.0
49752.0,STARLINK-3209,PAYLOAD,2022-03-13 22:00:01,15.401164800000002,0.0004354,53.2164,201.5525,353.394,70.4493,0.015508,0.00680102,0.0,0 STARLINK-3209,1 49752U 21115AE  22072.91668981  .00680102  00000-0  15508-1 0  9995,2 49752  53.2164 201.5525 0004354 353.3940  70.4493 15.40116480 16827,6823.901999999999,93.499,448.73800000000006,442.796,0.0
49752.0,STARLINK-3209,PAYLOAD,2022-03-14 06:00:00,15.40742541,0.0004431999999999,53.217,199.972,357.1327,116.0977,-0.023419,-0.0089521,0.0,0 STARLINK-3209,1 49752U 21115AE  22073.25001157 -.00895210  00000-0 -23419-1 0  9999,2 49752  53.2170 199.9720 0004432 357.1327 116.0977 15.40742541 16871,6822.054,93.461,446.942,440.895,0.0
49752.0,STARLINK-3209,PAYLOAD,2022-03-14 14:00:01,15.40102952,0.0004814,53.2171,198.3996,359.5007,163.3271,-0.0174,-0.00658634,0.0,0 STARLINK-3209,1 49752U 21115AE  22073.58335648 -.00658634  00000-0 -17400-1 0  9990,2 49752  53.2171 198.3996 0004814 359.5007 163.3271 15.40102952 16929,6823.941999999999,93.5,449.092,442.522,0.0
49752.0,STARLINK-3209,PAYLOAD,2022-03-14 20:00:01,15.39752153,0.0004896,53.2171,197.2218,358.485,110.9902,-0.017536,-0.00656293,0.0,0 STARLINK-3209,1 49752U 21115AE  22073.83334491 -.00656293  00000-0 -17536-1 0  9992,2 49752  53.2171 197.2218 0004896 358.4850 110.9902 15.39752153  3633,6824.979,93.522,450.185,443.502,0.0
49752.0,STARLINK-3209,PAYLOAD,2022-03-14 22:00:00,15.39639511,0.0004292,53.2171,196.8287,359.9769,211.5526,-0.017818,-0.00663694,0.0,0 STARLINK-3209,1 49752U 21115AE  22073.91667824 -.00663694  00000-0 -17818-1 0  9996,2 49752  53.2171 196.8287 0004292 359.9769 211.5526 15.39639511 16972,6825.311,93.528,450.106,444.247,0.0
49752.0,STARLINK-3209,PAYLOAD,2022-03-15 02:00:01,15.39404852,0.0004291,53.2175,196.0426,359.6073,56.1525,-0.017882,-0.00661118,0.0,0 STARLINK-3209,1 49752U 21115AE  22074.08334491 -.00661118  00000-0 -17882-1 0  9996,2 49752  53.2175 196.0426 0004291 359.6073  56.1525 15.39404852  3625,6826.005,93.543,450.799,444.941,0.0
49752.0,STARLINK-3209,PAYLOAD,2022-03-15 22:00:00,15.38235524,0.0004921,53.2172,192.122,292.8224,61.9813,-0.018357,-0.0065372,0.0,0 STARLINK-3209,1 49752U 21115AE  22074.91667824 -.00653720  00000-0 -18357-1 0  9995,2 49752  53.2172 192.1220 0004921 292.8224  61.9813 15.38235524 17139,6829.464,93.614,454.69,447.968,0.0
49752.0,STARLINK-3209,PAYLOAD,2022-03-16 14:00:01,15.37312849,0.000499,53.2174,188.9904,296.8137,150.6988,-0.019512,-0.00672791,0.0,0 STARLINK-3209,1 49752U 21115AE  22075.58334491 -.00672791  00000-0 -19512-1 0  9993,2 49752  53.2174 188.9904 0004990 296.8137 150.6988 15.37312849  3641,6832.196,93.67,457.471,450.652,0.0
49752.0,STARLINK-3209,PAYLOAD,2022-03-16 20:00:01,15.36950966,0.0004352,53.2172,187.817,256.8836,134.8214,-0.019024,-0.00649821,0.0,0 STARLINK-3209,1 49752U 21115AE  22075.83334491 -.00649821  00000-0 -19024-1 0  9997,2 49752  53.2172 187.8170 0004352 256.8836 134.8214 15.36950966 17273,6833.269,93.692,458.108,452.16,0.0
49752.0,STARLINK-3209,PAYLOAD,2022-03-17 14:00:01,15.35905321,9.940000000000004e-05,53.2174,184.3002,0.8802,221.5003,-0.020088,-0.0066189,0.0,0 STARLINK-3209,1 49752U 21115AE  22076.58334491 -.00661890  00000-0 -20088-1 0  9992,2 49752  53.2174 184.3002 0000994   0.8802 221.5003 15.35905321 17385,6836.37,93.756,458.914,457.555,0.0
49752.0,STARLINK-3209,PAYLOAD,2022-03-17 22:00:00,15.35439653,0.0001441999999999,53.2173,182.7385,44.9914,221.2217,-0.020399,-0.0066216,0.0,0 STARLINK-3209,1 49752U 21115AE  22076.91667824 -.00662160  00000-0 -20399-1 0  9994,2 49752  53.2173 182.7385 0001442  44.9914 221.2217 15.35439653  3640,6837.752,93.784,460.603,458.631,0.0
49752.0,STARLINK-3209,PAYLOAD,2022-03-18 14:00:01,15.34507207,0.0001309,53.2175,179.6205,61.0626,291.1343,-0.021037,-0.00662686,0.0,0 STARLINK-3209,1 49752U 21115AE  22077.58334491 -.00662686  00000-0 -21037-1 0  9992,2 49752  53.2175 179.6205 0001309  61.0626 291.1343 15.34507207  3679,6840.522,93.841,463.282,461.491,0.0
49752.0,STARLINK-3209,PAYLOAD,2022-03-18 22:00:00,15.34039925,0.0001145,53.2173,178.0619,77.707,316.6422,-0.021308,-0.00661358,0.0,0 STARLINK-3209,1 49752U 21115AE  22077.91667824 -.00661358  00000-0 -21308-1 0  9994,2 49752  53.2173 178.0619 0001145  77.7070 316.6422 15.34039925 17598,6841.911,93.87,464.559,462.992,0.0
49752.0,STARLINK-3209,PAYLOAD,2022-03-19 14:00:01,15.33107672,0.000143,53.2174,174.9506,58.2391,58.7301,-0.021999,-0.00662789,0.0,0 STARLINK-3209,1 49752U 21115AE  22078.58334491 -.00662789  00000-0 -21999-1 0  9994,2 49752  53.2174 174.9506 0001430  58.2391  58.7301 15.33107672  3641,6844.684,93.927,467.528,465.57,0.0
49752.0,STARLINK-3209,PAYLOAD,2022-03-19 22:00:01,15.32640056,0.000131,53.2173,173.395,79.0929,78.4106,-0.022256,-0.00660812,0.0,0 STARLINK-3209,1 49752U 21115AE  22078.91668981 -.00660812  00000-0 -22256-1 0  9997,2 49752  53.2173 173.3950 0001310  79.0929  78.4106 15.32640056 17746,6846.076,93.956,468.838,467.044,0.0
49752.0,STARLINK-3209,PAYLOAD,2022-03-20 14:00:01,15.31706016,0.0001449,53.2174,170.2904,68.984,167.7125,-0.022862,-0.00659249,0.0,0 STARLINK-3209,1 49752U 21115AE  22079.58334491 -.00659249  00000-0 -22862-1 0  9992,2 49752  53.2174 170.2904 0001449  68.9840 167.7125 15.31706016  3638,6848.859,94.013,471.716,469.732,0.0
